STARLINK-36596          
1 67670U 26022Y   26061.58289366  .00258417  00000+0  16746-2 0  9992
2 67670  97.2831  95.2608 0001518  78.8753 281.2683 15.75285711  4434
STARLINK-36297          
1 67671U 26022Z   26061.58077090  .00239126  00000+0  15595-2 0  9999
2 67671  97.2844  95.2633 0001277 112.8762 247.2638 15.75191470  4438
STARLINK-36616          
1 67672U 26022AA  26061.64570805  .00337896  00000+0  21772-2 0  9996
2 67672  97.2849  95.3279 0000752 139.7129 220.4192 15.75196006  4442
COSMOS 2600             
1 67674U 26023A   26059.29522708  .00071571  00000+0  32746-3 0  9995
2 67674  96.6452 135.2352 0003248  47.0444 313.1099 15.83528492  3562
2026-023B               
1 67675U 26023B   26061.36101917  .00012638  00000+0  54032-3 0  9993
2 67675  96.6376 135.1582 0019037 156.9230 203.2868 15.22784330  3749
2026-023C               
1 67676U 26023C   26061.62266804  .00013894  00000+0  59139-3 0  9998
2 67676  96.6410 135.4117 0020112 146.3922 213.8597 15.22896172  3949
2026-023D               
1 67677U 26023D   26061.49350420  .00013635  00000+0  58356-3 0  9995
2 67677  96.6441 135.2834 0020325 151.7123 208.5224 15.22710961  3755
2026-023E               
1 67678U 26023E   26061.62309097  .00015506  00000+0  66000-3 0  9999
2 67678  96.6333 135.3829 0020098 150.7484 209.4885 15.22874304  3774
2026-023F               
1 67679U 26023F   26061.62077378  .00015893  00000+0  67259-3 0  9990
2 67679  96.6343 137.8828 0022011 145.6409 214.6259 15.23027334  3765
2026-023G               
1 67680U 26023G   26061.62142728  .00016389  00000+0  69363-3 0  9993
2 67680  96.6272 137.8669 0023542 142.2286 218.0611 15.22986823  3763
2026-023H               
1 67681U 26023H   26061.62146345  .00013615  00000+0  57781-3 0  9993
2 67681  96.6416 137.8942 0023618 141.5728 218.7198 15.22928330  3761
2026-023J               
1 67682U 26023J   26061.62043631  .00013098  00000+0  55440-3 0  9993
2 67682  96.6371 137.8996 0023761 138.4747 221.8303 15.23022536  3763
