CCSDS_OMM_VERS = 2.0
CREATION_DATE  = 
ORIGINATOR     = 

OBJECT_NAME    = STARLINK-36596
OBJECT_ID      = 2026-022Y
CENTER_NAME    = EARTH
REF_FRAME      = TEME
TIME_SYSTEM    = UTC
MEAN_ELEMENT_THEORY = SGP/SGP4

EPOCH          = 2026-03-02T13:59:22.012224
MEAN_MOTION    = 15.75285711
ECCENTRICITY   = .0001518
INCLINATION    = 97.2831
RA_OF_ASC_NODE = 95.2608
ARG_OF_PERICENTER = 78.8753
MEAN_ANOMALY   = 281.2683

EPHEMERIS_TYPE = 0
CLASSIFICATION_TYPE = U
NORAD_CAT_ID   = 67670
ELEMENT_SET_NO = 999
REV_AT_EPOCH   = 443
BSTAR          = .16745639E-2
MEAN_MOTION_DOT = .258417E-2
MEAN_MOTION_DDOT = 0

CCSDS_OMM_VERS = 2.0
CREATION_DATE  = 
ORIGINATOR     = 

OBJECT_NAME    = STARLINK-36297
OBJECT_ID      = 2026-022Z
CENTER_NAME    = EARTH
REF_FRAME      = TEME
TIME_SYSTEM    = UTC
MEAN_ELEMENT_THEORY = SGP/SGP4

EPOCH          = 2026-03-02T13:56:18.605760
MEAN_MOTION    = 15.75191470
ECCENTRICITY   = .00012775
INCLINATION    = 97.2844
RA_OF_ASC_NODE = 95.2633
ARG_OF_PERICENTER = 112.8762
MEAN_ANOMALY   = 247.2638

EPHEMERIS_TYPE = 0
CLASSIFICATION_TYPE = U
NORAD_CAT_ID   = 67671
ELEMENT_SET_NO = 999
REV_AT_EPOCH   = 443
BSTAR          = .15594968E-2
MEAN_MOTION_DOT = .239126E-2
MEAN_MOTION_DDOT = 0

CCSDS_OMM_VERS = 2.0
CREATION_DATE  = 
ORIGINATOR     = 

OBJECT_NAME    = STARLINK-36616
OBJECT_ID      = 2026-022AA
CENTER_NAME    = EARTH
REF_FRAME      = TEME
TIME_SYSTEM    = UTC
MEAN_ELEMENT_THEORY = SGP/SGP4

EPOCH          = 2026-03-02T15:29:49.175520
MEAN_MOTION    = 15.75196006
ECCENTRICITY   = .00007527
INCLINATION    = 97.2849
RA_OF_ASC_NODE = 95.3279
ARG_OF_PERICENTER = 139.7129
MEAN_ANOMALY   = 220.4192

EPHEMERIS_TYPE = 0
CLASSIFICATION_TYPE = U
NORAD_CAT_ID   = 67672
ELEMENT_SET_NO = 999
REV_AT_EPOCH   = 444
BSTAR          = .21771595E-2
MEAN_MOTION_DOT = .337896E-2
MEAN_MOTION_DDOT = 0

CCSDS_OMM_VERS = 2.0
CREATION_DATE  = 
ORIGINATOR     = 

OBJECT_NAME    = COSMOS 2600
OBJECT_ID      = 2026-023A
CENTER_NAME    = EARTH
REF_FRAME      = TEME
TIME_SYSTEM    = UTC
MEAN_ELEMENT_THEORY = SGP/SGP4

EPOCH          = 2026-02-28T07:05:07.619712
MEAN_MOTION    = 15.83528492
ECCENTRICITY   = .00032481
INCLINATION    = 96.6452
RA_OF_ASC_NODE = 135.2352
ARG_OF_PERICENTER = 47.0444
MEAN_ANOMALY   = 313.1099

EPHEMERIS_TYPE = 0
CLASSIFICATION_TYPE = U
NORAD_CAT_ID   = 67674
ELEMENT_SET_NO = 999
REV_AT_EPOCH   = 356
BSTAR          = .32745834E-3
MEAN_MOTION_DOT = .71571E-3
MEAN_MOTION_DDOT = 0

CCSDS_OMM_VERS = 2.0
CREATION_DATE  = 
ORIGINATOR     = 

OBJECT_NAME    = 2026-023B
OBJECT_ID      = 2026-023B
CENTER_NAME    = EARTH
REF_FRAME      = TEME
TIME_SYSTEM    = UTC
MEAN_ELEMENT_THEORY = SGP/SGP4

EPOCH          = 2026-03-02T08:39:52.056288
MEAN_MOTION    = 15.22784330
ECCENTRICITY   = .00190379
INCLINATION    = 96.6376
RA_OF_ASC_NODE = 135.1582
ARG_OF_PERICENTER = 156.9230
MEAN_ANOMALY   = 203.2868

EPHEMERIS_TYPE = 0
CLASSIFICATION_TYPE = U
NORAD_CAT_ID   = 67675
ELEMENT_SET_NO = 999
REV_AT_EPOCH   = 374
BSTAR          = .54032032E-3
MEAN_MOTION_DOT = .12638E-3
MEAN_MOTION_DDOT = 0

CCSDS_OMM_VERS = 2.0
CREATION_DATE  = 
ORIGINATOR     = 

OBJECT_NAME    = 2026-023C
OBJECT_ID      = 2026-023C
CENTER_NAME    = EARTH
REF_FRAME      = TEME
TIME_SYSTEM    = UTC
MEAN_ELEMENT_THEORY = SGP/SGP4

EPOCH          = 2026-03-02T14:56:38.518656
MEAN_MOTION    = 15.22896172
ECCENTRICITY   = .0020112
INCLINATION    = 96.6410
RA_OF_ASC_NODE = 135.4117
ARG_OF_PERICENTER = 146.3922
MEAN_ANOMALY   = 213.8597

EPHEMERIS_TYPE = 0
CLASSIFICATION_TYPE = U
NORAD_CAT_ID   = 67676
ELEMENT_SET_NO = 999
REV_AT_EPOCH   = 394
BSTAR          = .59139337E-3
MEAN_MOTION_DOT = .13894E-3
MEAN_MOTION_DDOT = 0

CCSDS_OMM_VERS = 2.0
CREATION_DATE  = 
ORIGINATOR     = 

OBJECT_NAME    = 2026-023D
OBJECT_ID      = 2026-023D
CENTER_NAME    = EARTH
REF_FRAME      = TEME
TIME_SYSTEM    = UTC
MEAN_ELEMENT_THEORY = SGP/SGP4

EPOCH          = 2026-03-02T11:50:38.762880
MEAN_MOTION    = 15.22710961
ECCENTRICITY   = .00203259
INCLINATION    = 96.6441
RA_OF_ASC_NODE = 135.2834
ARG_OF_PERICENTER = 151.7123
MEAN_ANOMALY   = 208.5224

EPHEMERIS_TYPE = 0
CLASSIFICATION_TYPE = U
NORAD_CAT_ID   = 67677
ELEMENT_SET_NO = 999
REV_AT_EPOCH   = 375
BSTAR          = .58356064E-3
MEAN_MOTION_DOT = .13635E-3
MEAN_MOTION_DDOT = 0

CCSDS_OMM_VERS = 2.0
CREATION_DATE  = 
ORIGINATOR     = 

OBJECT_NAME    = 2026-023E
OBJECT_ID      = 2026-023E
CENTER_NAME    = EARTH
REF_FRAME      = TEME
TIME_SYSTEM    = UTC
MEAN_ELEMENT_THEORY = SGP/SGP4

EPOCH          = 2026-03-02T14:57:15.059808
MEAN_MOTION    = 15.22874304
ECCENTRICITY   = .00200985
INCLINATION    = 96.6333
RA_OF_ASC_NODE = 135.3829
ARG_OF_PERICENTER = 150.7484
MEAN_ANOMALY   = 209.4885

EPHEMERIS_TYPE = 0
CLASSIFICATION_TYPE = U
NORAD_CAT_ID   = 67678
ELEMENT_SET_NO = 999
REV_AT_EPOCH   = 377
BSTAR          = .66000179E-3
MEAN_MOTION_DOT = .15506E-3
MEAN_MOTION_DDOT = 0

CCSDS_OMM_VERS = 2.0
CREATION_DATE  = 
ORIGINATOR     = 

OBJECT_NAME    = 2026-023F
OBJECT_ID      = 2026-023F
CENTER_NAME    = EARTH
REF_FRAME      = TEME
TIME_SYSTEM    = UTC
MEAN_ELEMENT_THEORY = SGP/SGP4

EPOCH          = 2026-03-02T14:53:54.854592
MEAN_MOTION    = 15.23027334
ECCENTRICITY   = .00220116
INCLINATION    = 96.6343
RA_OF_ASC_NODE = 137.8828
ARG_OF_PERICENTER = 145.6409
MEAN_ANOMALY   = 214.6259

EPHEMERIS_TYPE = 0
CLASSIFICATION_TYPE = U
NORAD_CAT_ID   = 67679
ELEMENT_SET_NO = 999
REV_AT_EPOCH   = 376
BSTAR          = .67258964E-3
MEAN_MOTION_DOT = .15893E-3
MEAN_MOTION_DDOT = 0

CCSDS_OMM_VERS = 2.0
CREATION_DATE  = 
ORIGINATOR     = 

OBJECT_NAME    = 2026-023G
OBJECT_ID      = 2026-023G
CENTER_NAME    = EARTH
REF_FRAME      = TEME
TIME_SYSTEM    = UTC
MEAN_ELEMENT_THEORY = SGP/SGP4

EPOCH          = 2026-03-02T14:54:51.316992
MEAN_MOTION    = 15.22986823
ECCENTRICITY   = .00235423
INCLINATION    = 96.6272
RA_OF_ASC_NODE = 137.8669
ARG_OF_PERICENTER = 142.2286
MEAN_ANOMALY   = 218.0611

EPHEMERIS_TYPE = 0
CLASSIFICATION_TYPE = U
NORAD_CAT_ID   = 67680
ELEMENT_SET_NO = 999
REV_AT_EPOCH   = 376
BSTAR          = .69362755E-3
MEAN_MOTION_DOT = .16389E-3
MEAN_MOTION_DDOT = 0

CCSDS_OMM_VERS = 2.0
CREATION_DATE  = 
ORIGINATOR     = 

OBJECT_NAME    = 2026-023H
OBJECT_ID      = 2026-023H
CENTER_NAME    = EARTH
REF_FRAME      = TEME
TIME_SYSTEM    = UTC
MEAN_ELEMENT_THEORY = SGP/SGP4

EPOCH          = 2026-03-02T14:54:54.442080
MEAN_MOTION    = 15.22928330
ECCENTRICITY   = .00236186
INCLINATION    = 96.6416
RA_OF_ASC_NODE = 137.8942
ARG_OF_PERICENTER = 141.5728
MEAN_ANOMALY   = 218.7198

EPHEMERIS_TYPE = 0
CLASSIFICATION_TYPE = U
NORAD_CAT_ID   = 67681
ELEMENT_SET_NO = 999
REV_AT_EPOCH   = 376
BSTAR          = .57781059E-3
MEAN_MOTION_DOT = .13615E-3
MEAN_MOTION_DDOT = 0

CCSDS_OMM_VERS = 2.0
CREATION_DATE  = 
ORIGINATOR     = 

OBJECT_NAME    = 2026-023J
OBJECT_ID      = 2026-023J
CENTER_NAME    = EARTH
REF_FRAME      = TEME
TIME_SYSTEM    = UTC
MEAN_ELEMENT_THEORY = SGP/SGP4

EPOCH          = 2026-03-02T14:53:25.697184
MEAN_MOTION    = 15.23022536
ECCENTRICITY   = .00237615
INCLINATION    = 96.6371
RA_OF_ASC_NODE = 137.8996
ARG_OF_PERICENTER = 138.4747
MEAN_ANOMALY   = 221.8303

EPHEMERIS_TYPE = 0
CLASSIFICATION_TYPE = U
NORAD_CAT_ID   = 67682
ELEMENT_SET_NO = 999
REV_AT_EPOCH   = 376
BSTAR          = .55439964E-3
MEAN_MOTION_DOT = .13098E-3
MEAN_MOTION_DDOT = 0

